<?xml version="1.0" encoding="utf-8" ?>
<kml xmlns="http://www.opengis.net/kml/2.2">
<Document id="root_doc">
<Folder><name>boundary</name>
  <Placemark>
	<name>Yelliemadaloo DRAFT from satellite - confirm with estate</name>
	<Style><LineStyle><color>ff0000ff</color></LineStyle><PolyStyle><fill>0</fill></PolyStyle></Style>
      <Polygon><outerBoundaryIs><LinearRing><coordinates>75.3906379515821,13.3898583878023 75.3904160838494,13.3897321391117 75.3903139926542,13.3894248601815 75.3901104081096,13.3891810336614 75.3902666328028,13.3886925107337 75.3901638141215,13.3879331200795 75.3903388302781,13.387643497689 75.390282832194,13.3872818939517 75.3904577020319,13.386901849151 75.3904108669833,13.3864950199877 75.3902257420269,13.3862421226756 75.3901234342849,13.3857992100255 75.3897905806364,13.385573667073 75.3891994152147,13.3855293666447 75.388995733539,13.3852222433813 75.3887554573485,13.3851321904142 75.3884962893034,13.3847799407409 75.3882745142908,13.3847079433836 75.3879329781163,13.3848260170802 75.3873417858308,13.3847636277704 75.3869727582884,13.3850173762074 75.3868439333739,13.3853159679609 75.3863637429085,13.38536191363 75.3859750750704,13.3848832675247 75.3859931433768,13.3846300566202 75.3862879968644,13.3841955777135 75.3862320489779,13.3838610995131 75.3858715086517,13.3836446357609 75.3855290664563,13.3831930450448 75.3849836263935,13.3828593124187 75.384853967252,13.3826334532153 75.3849826209579,13.3822263554786 75.3852225480099,13.3820993983608 75.3857212036958,13.3820534268399 75.3859884628405,13.3816913284628 75.3863669527805,13.3815822432541 75.3868651885868,13.381274044526 75.3869941991447,13.3810930018578 75.3870950837962,13.3806497765527 75.3874547245237,13.380305619776 75.3875651617002,13.3800613094415 75.3881093392397,13.3796083617264 75.3883402292166,13.3796080072805 75.3885440211019,13.3799874692798 75.3888858258188,13.3800411974608 75.389614581908,13.3795065823152 75.3897337724112,13.3789638629606 75.3899090446912,13.3788370011362 75.3902139930769,13.3789450379487 75.3904729386198,13.3791616525487 75.3908515536384,13.3791339409126 75.3910363818816,13.379205993283 75.3912955765429,13.3795763250442 75.3916005702592,13.3797114868466 75.3919150338155,13.3799913097404 75.3922382362514,13.3799636818706 75.3923861230744,13.3800357905178 75.3924422686915,13.38048781631 75.3929145462347,13.381264717079 75.3930994646797,13.3813910212723 75.3935612477469,13.3813903029641 75.3938296108354,13.3817154063529 75.3939317910987,13.3820769374126 75.3942926007117,13.3824561497409 75.3947175902052,13.3825459091873 75.3955499546272,13.3832499041615 75.395837207487,13.3838281587653 75.395736647867,13.3844612738541 75.3960607719782,13.3849942591207 75.3958398219099,13.3854286332574 75.3958312212765,13.3858174635262 75.3959518189844,13.3861427956856 75.3958507122614,13.3864413483113 75.395592758039,13.3868396111734 75.3952696649785,13.3869395813821 75.3951036699878,13.3870935591728 75.3949751047924,13.3875458726468 75.394504810407,13.3879987196771 75.3943113566592,13.3883064580889 75.3941266823135,13.3883338728913 75.3937937627459,13.3880721665401 75.3935536289397,13.3880725405695 75.3932768156869,13.3882357319813 75.3930649323181,13.3885706249114 75.3926591227689,13.3889239035445 75.391938338318,13.3886899238028 75.3916797319631,13.388690324714 75.391439977378,13.3889257947468 75.3914503238588,13.38961298994 75.3913119594956,13.389721711255 75.3908779121448,13.3897495097288 75.3906379515821,13.3898583878023</coordinates></LinearRing></outerBoundaryIs></Polygon>
  </Placemark>
</Folder>
</Document></kml>
