{
"type": "FeatureCollection",
"features": [
{ "type": "Feature", "properties": { "ProducerName": "Yelliemadaloo DRAFT from satellite - confirm with estate", "Area": 75.9269, "ProductionPlace": "Yelliemadaloo DRAFT from satellite - confirm with estate" }, "geometry": { "type": "Polygon", "coordinates": [ [ [ 75.390638, 13.389858 ], [ 75.390416, 13.389732 ], [ 75.390314, 13.389425 ], [ 75.39011, 13.389181 ], [ 75.390267, 13.388693 ], [ 75.390164, 13.387933 ], [ 75.390339, 13.387643 ], [ 75.390283, 13.387282 ], [ 75.390458, 13.386902 ], [ 75.390411, 13.386495 ], [ 75.390226, 13.386242 ], [ 75.390123, 13.385799 ], [ 75.389791, 13.385574 ], [ 75.389199, 13.385529 ], [ 75.388996, 13.385222 ], [ 75.388755, 13.385132 ], [ 75.388496, 13.38478 ], [ 75.388275, 13.384708 ], [ 75.387933, 13.384826 ], [ 75.387342, 13.384764 ], [ 75.386973, 13.385017 ], [ 75.386844, 13.385316 ], [ 75.386364, 13.385362 ], [ 75.385975, 13.384883 ], [ 75.385993, 13.38463 ], [ 75.386288, 13.384196 ], [ 75.386232, 13.383861 ], [ 75.385872, 13.383645 ], [ 75.385529, 13.383193 ], [ 75.384984, 13.382859 ], [ 75.384854, 13.382633 ], [ 75.384983, 13.382226 ], [ 75.385223, 13.382099 ], [ 75.385721, 13.382053 ], [ 75.385988, 13.381691 ], [ 75.386367, 13.381582 ], [ 75.386865, 13.381274 ], [ 75.386994, 13.381093 ], [ 75.387095, 13.38065 ], [ 75.387455, 13.380306 ], [ 75.387565, 13.380061 ], [ 75.388109, 13.379608 ], [ 75.38834, 13.379608 ], [ 75.388544, 13.379987 ], [ 75.388886, 13.380041 ], [ 75.389615, 13.379507 ], [ 75.389734, 13.378964 ], [ 75.389909, 13.378837 ], [ 75.390214, 13.378945 ], [ 75.390473, 13.379162 ], [ 75.390852, 13.379134 ], [ 75.391036, 13.379206 ], [ 75.391296, 13.379576 ], [ 75.391601, 13.379711 ], [ 75.391915, 13.379991 ], [ 75.392238, 13.379964 ], [ 75.392386, 13.380036 ], [ 75.392442, 13.380488 ], [ 75.392915, 13.381265 ], [ 75.393099, 13.381391 ], [ 75.393561, 13.38139 ], [ 75.39383, 13.381715 ], [ 75.393932, 13.382077 ], [ 75.394293, 13.382456 ], [ 75.394718, 13.382546 ], [ 75.39555, 13.38325 ], [ 75.395837, 13.383828 ], [ 75.395737, 13.384461 ], [ 75.396061, 13.384994 ], [ 75.39584, 13.385429 ], [ 75.395831, 13.385817 ], [ 75.395952, 13.386143 ], [ 75.395851, 13.386441 ], [ 75.395593, 13.38684 ], [ 75.39527, 13.38694 ], [ 75.395104, 13.387094 ], [ 75.394975, 13.387546 ], [ 75.394505, 13.387999 ], [ 75.394311, 13.388306 ], [ 75.394127, 13.388334 ], [ 75.393794, 13.388072 ], [ 75.393554, 13.388073 ], [ 75.393277, 13.388236 ], [ 75.393065, 13.388571 ], [ 75.392659, 13.388924 ], [ 75.391938, 13.38869 ], [ 75.39168, 13.38869 ], [ 75.39144, 13.388926 ], [ 75.39145, 13.389613 ], [ 75.391312, 13.389722 ], [ 75.390878, 13.38975 ], [ 75.390638, 13.389858 ] ] ] } }
]
}
