<?xml version="1.0" encoding="utf-8" ?>
<kml xmlns="http://www.opengis.net/kml/2.2">
<Document id="root_doc">
<Folder><name>boundary.lines</name>
  <Placemark>
	<name>line 1</name>
	<description></description>
	<Style><LineStyle><color>ff0000ff</color></LineStyle><PolyStyle><fill>0</fill></PolyStyle></Style>
      <MultiGeometry><LineString><coordinates>75.3921611889739,13.3798085460434 75.3925736660723,13.3802111088168</coordinates></LineString><LineString><coordinates>75.3936337913003,13.3812457433564 75.3937351584838,13.381344672455</coordinates></LineString><LineString><coordinates>75.3949445542214,13.3825249701916 75.3957758236067,13.383336229003</coordinates></LineString></MultiGeometry>
  </Placemark>
  <Placemark>
	<name>line 2</name>
	<description></description>
	<Style><LineStyle><color>ff0000ff</color></LineStyle><PolyStyle><fill>0</fill></PolyStyle></Style>
      <MultiGeometry><LineString><coordinates>75.3908391999644,13.3789732864209 75.3929878604279,13.3810703091259</coordinates></LineString><LineString><coordinates>75.393151313184,13.3812298314095 75.3959782387099,13.3839887279743</coordinates></LineString></MultiGeometry>
  </Placemark>
  <Placemark>
	<name>line 3</name>
	<description></description>
	<Style><LineStyle><color>ff0000ff</color></LineStyle><PolyStyle><fill>0</fill></PolyStyle></Style>
      <LineString><coordinates>75.390142644698,13.3787484283365 75.3959156745683,13.3843826282812</coordinates></LineString>
  </Placemark>
  <Placemark>
	<name>line 4</name>
	<description></description>
	<Style><LineStyle><color>ff0000ff</color></LineStyle><PolyStyle><fill>0</fill></PolyStyle></Style>
      <LineString><coordinates>75.3897097490543,13.3787808967125 75.3961887450782,13.3851040792257</coordinates></LineString>
  </Placemark>
  <Placemark>
	<name>line 5</name>
	<description></description>
	<Style><LineStyle><color>ff0000ff</color></LineStyle><PolyStyle><fill>0</fill></PolyStyle></Style>
      <LineString><coordinates>75.3895417339111,13.3790718857018 75.3960340951286,13.3854081118822</coordinates></LineString>
  </Placemark>
  <Placemark>
	<name>line 6</name>
	<description></description>
	<Style><LineStyle><color>ff0000ff</color></LineStyle><PolyStyle><fill>0</fill></PolyStyle></Style>
      <LineString><coordinates>75.3894433771084,13.379430860809 75.3960170046465,13.3858463905759</coordinates></LineString>
  </Placemark>
  <Placemark>
	<name>line 7</name>
	<description></description>
	<Style><LineStyle><color>ff0000ff</color></LineStyle><PolyStyle><fill>0</fill></PolyStyle></Style>
      <LineString><coordinates>75.3891772486996,13.379626092781 75.3960579573878,13.3863413141249</coordinates></LineString>
  </Placemark>
  <Placemark>
	<name>line 8</name>
	<description></description>
	<Style><LineStyle><color>ff0000ff</color></LineStyle><PolyStyle><fill>0</fill></PolyStyle></Style>
      <LineString><coordinates>75.3889111198587,13.3798213244816 75.3959095142826,13.3866514048921</coordinates></LineString>
  </Placemark>
  <Placemark>
	<name>line 9</name>
	<description></description>
	<Style><LineStyle><color>ff0000ff</color></LineStyle><PolyStyle><fill>0</fill></PolyStyle></Style>
      <LineString><coordinates>75.3880672285437,13.3794526620331 75.3957288634476,13.3869300641799</coordinates></LineString>
  </Placemark>
  <Placemark>
	<name>line 10</name>
	<description></description>
	<Style><LineStyle><color>ff0000ff</color></LineStyle><PolyStyle><fill>0</fill></PolyStyle></Style>
      <LineString><coordinates>75.3878041802522,13.3796508999314 75.395403217368,13.3870672216455</coordinates></LineString>
  </Placemark>
  <Placemark>
	<name>line 11</name>
	<description></description>
	<Style><LineStyle><color>ff0000ff</color></LineStyle><PolyStyle><fill>0</fill></PolyStyle></Style>
      <LineString><coordinates>75.3875525847573,13.3798603159472 75.3952070630177,13.3873307514231</coordinates></LineString>
  </Placemark>
  <Placemark>
	<name>line 12</name>
	<description></description>
	<Style><LineStyle><color>ff0000ff</color></LineStyle><PolyStyle><fill>0</fill></PolyStyle></Style>
      <LineString><coordinates>75.387356786913,13.3801241908376 75.3950847111025,13.3876663059864</coordinates></LineString>
  </Placemark>
  <Placemark>
	<name>line 13</name>
	<description></description>
	<Style><LineStyle><color>ff0000ff</color></LineStyle><PolyStyle><fill>0</fill></PolyStyle></Style>
      <LineString><coordinates>75.3871472063277,13.3803746139923 75.3948500523984,13.3878922595445</coordinates></LineString>
  </Placemark>
  <Placemark>
	<name>line 14</name>
	<description></description>
	<Style><LineStyle><color>ff0000ff</color></LineStyle><PolyStyle><fill>0</fill></PolyStyle></Style>
      <LineString><coordinates>75.3869331234534,13.3806206431478 75.3946200592248,13.3881227664629</coordinates></LineString>
  </Placemark>
  <Placemark>
	<name>line 15</name>
	<description></description>
	<Style><LineStyle><color>ff0000ff</color></LineStyle><PolyStyle><fill>0</fill></PolyStyle></Style>
      <LineString><coordinates>75.386848388303,13.3809929164448 75.394442199204,13.3884041509517</coordinates></LineString>
  </Placemark>
  <Placemark>
	<name>line 16</name>
	<description></description>
	<Style><LineStyle><color>ff0000ff</color></LineStyle><PolyStyle><fill>0</fill></PolyStyle></Style>
      <LineString><coordinates>75.386626370249,13.381231201411 75.3940500253134,13.3884763840919</coordinates></LineString>
  </Placemark>
  <Placemark>
	<name>line 17</name>
	<description></description>
	<Style><LineStyle><color>ff0000ff</color></LineStyle><PolyStyle><fill>0</fill></PolyStyle></Style>
      <LineString><coordinates>75.3863410445666,13.3814076980517 75.3934346217799,13.3883307630194</coordinates></LineString>
  </Placemark>
  <Placemark>
	<name>line 18</name>
	<description></description>
	<Style><LineStyle><color>ff0000ff</color></LineStyle><PolyStyle><fill>0</fill></PolyStyle></Style>
      <LineString><coordinates>75.3859922843638,13.3815222822368 75.3932415968808,13.388597348517</coordinates></LineString>
  </Placemark>
  <Placemark>
	<name>line 19</name>
	<description></description>
	<Style><LineStyle><color>ff0000ff</color></LineStyle><PolyStyle><fill>0</fill></PolyStyle></Style>
      <LineString><coordinates>75.3857493803278,13.3817401828827 75.3930141948261,13.3888303849155</coordinates></LineString>
  </Placemark>
  <Placemark>
	<name>line 20</name>
	<description></description>
	<Style><LineStyle><color>ff0000ff</color></LineStyle><PolyStyle><fill>0</fill></PolyStyle></Style>
      <MultiGeometry><LineString><coordinates>75.3854627741031,13.3819154299632 75.3893421436347,13.3857016428016</coordinates></LineString><LineString><coordinates>75.3902566832538,13.3865941947016 75.3927677823819,13.3890448688953</coordinates></LineString></MultiGeometry>
  </Placemark>
  <Placemark>
	<name>line 21</name>
	<description></description>
	<Style><LineStyle><color>ff0000ff</color></LineStyle><PolyStyle><fill>0</fill></PolyStyle></Style>
      <MultiGeometry><LineString><coordinates>75.3850765964609,13.3819934942159 75.3880960764586,13.3849404902549</coordinates></LineString><LineString><coordinates>75.3902240756237,13.3870173395199 75.3921982777683,13.3889440394687</coordinates></LineString></MultiGeometry>
  </Placemark>
  <Placemark>
	<name>line 22</name>
	<description></description>
	<Style><LineStyle><color>ff0000ff</color></LineStyle><PolyStyle><fill>0</fill></PolyStyle></Style>
      <MultiGeometry><LineString><coordinates>75.384819479787,13.3821975235539 75.3876478105484,13.3849579654901</coordinates></LineString><LineString><coordinates>75.3901319572183,13.3873824049153 75.3916928000667,13.3889056941728</coordinates></LineString></MultiGeometry>
  </Placemark>
  <Placemark>
	<name>line 23</name>
	<description></description>
	<Style><LineStyle><color>ff0000ff</color></LineStyle><PolyStyle><fill>0</fill></PolyStyle></Style>
      <MultiGeometry><LineString><coordinates>75.3847095893976,13.3825452480136 75.3872493580702,13.3850240570748</coordinates></LineString><LineString><coordinates>75.3900681195563,13.3877750710831 75.3916098850948,13.3892797403593</coordinates></LineString></MultiGeometry>
  </Placemark>
  <Placemark>
	<name>line 24</name>
	<description></description>
	<Style><LineStyle><color>ff0000ff</color></LineStyle><PolyStyle><fill>0</fill></PolyStyle></Style>
      <MultiGeometry><LineString><coordinates>75.3860282321598,13.3842872268722 75.3870402630153,13.3852749581376</coordinates></LineString><LineString><coordinates>75.390033432779,13.3881961871334 75.391582908666,13.3897083787654</coordinates></LineString></MultiGeometry>
  </Placemark>
  <Placemark>
	<name>line 25</name>
	<description></description>
	<Style><LineStyle><color>ff0000ff</color></LineStyle><PolyStyle><fill>0</fill></PolyStyle></Style>
      <MultiGeometry><LineString><coordinates>75.3858438731666,13.3845622699121 75.3867875038712,13.3854832440031</coordinates></LineString><LineString><coordinates>75.3900898217912,13.3887061882081 75.391296812198,13.3898841347157</coordinates></LineString></MultiGeometry>
  </Placemark>
  <Placemark>
	<name>line 26</name>
	<description></description>
	<Style><LineStyle><color>ff0000ff</color></LineStyle><PolyStyle><fill>0</fill></PolyStyle></Style>
      <MultiGeometry><LineString><coordinates>75.3859873621379,13.3851572908564 75.3863620718849,13.3855230037082</coordinates></LineString><LineString><coordinates>75.3899789347617,13.389052937167 75.3908756715259,13.3899280968114</coordinates></LineString></MultiGeometry>
  </Placemark>
  <Placemark>
	<name>line 27</name>
	<description></description>
	<Style><LineStyle><color>ff0000ff</color></LineStyle><PolyStyle><fill>0</fill></PolyStyle></Style>
      <LineString><coordinates>75.3902595134725,13.3897817336882 75.3903766345919,13.3898960365844</coordinates></LineString>
  </Placemark>
</Folder>
</Document></kml>
